NORAD_CAT_ID,OBJECT_NAME,OBJECT_TYPE,EPOCH,MEAN_MOTION,ECCENTRICITY,INCLINATION,RA_OF_ASC_NODE,ARG_OF_PERICENTER,MEAN_ANOMALY,BSTAR,MEAN_MOTION_DOT,MEAN_MOTION_DDOT,TLE_LINE0,TLE_LINE1,TLE_LINE2,SEMIMAJOR_AXIS,PERIOD,APOGEE,PERIGEE,DECAYED
55391.0,STARLINK-5077,PAYLOAD,2023-11-05 13:36:29,14.97537071,0.0002903,70.0006,59.4301,262.0025,98.0804,0.00019793,2.222e-05,0.0,0 STARLINK-5077,1 55391U 23014A   23309.56701095  .00002222  00000-0  19793-3 0  9993,2 55391  70.0006  59.4301 0002903 262.0025  98.0804 14.97537071 43999,6952.646,96.158,576.529,572.493,0.0
55391.0,STARLINK-5077,PAYLOAD,2023-11-05 16:48:52,14.97536742,0.0002936,70.0011,59.0956,269.7099,90.3723,0.00020349,2.287e-05,0.0,0 STARLINK-5077,1 55391U 23014A   23309.70060251  .00002287  00000-0  20349-3 0  9991,2 55391  70.0011  59.0956 0002936 269.7099  90.3723 14.97536742 43076,6952.647,96.158,576.553,572.471,0.0
55391.0,STARLINK-5077,PAYLOAD,2023-11-06 13:39:16,14.97541205,0.0003195,70.0004,56.9076,274.086,85.9934,0.00018953,2.124e-05,0.0,0 STARLINK-5077,1 55391U 23014A   23310.56894141  .00002124  00000-0  18953-3 0  9998,2 55391  70.0004  56.9076 0003195 274.0860  85.9934 14.97541205 44143,6952.633,96.158,576.72,572.277,0.0
55391.0,STARLINK-5077,PAYLOAD,2023-11-06 15:15:27,14.97542342,0.0003205,70.0006,56.7398,274.453,85.6262,0.00020139,2.263e-05,0.0,0 STARLINK-5077,1 55391U 23014A   23310.63573553  .00002263  00000-0  20139-3 0  9990,2 55391  70.0006  56.7398 0003205 274.4530  85.6262 14.97542342 44155,6952.63,96.158,576.723,572.266,0.0
55391.0,STARLINK-5077,PAYLOAD,2023-11-07 00:52:36,14.97511458,0.0003334,70.0011,55.7306,270.1794,89.8982,-0.0001991,-2.418e-05,0.0,0 STARLINK-5077,1 55391U 23014A   23311.03653871 -.00002418  00000-0 -19910-3 0  9996,2 55391  70.0011  55.7306 0003334 270.1794  89.8982 14.97511458 43278,6952.725,96.16,576.908,572.272,0.0
55391.0,STARLINK-5077,PAYLOAD,2023-11-07 12:05:57,14.97491768,0.0002981,70.0011,54.5538,269.5928,90.4889,-0.00039786,-4.735e-05,0.0,0 STARLINK-5077,1 55391U 23014A   23311.50413496 -.00004735  00000-0 -39786-3 0  9992,2 55391  70.0011  54.5538 0002981 269.5928  90.4889 14.97491768 43343,6952.786,96.161,576.724,572.579,0.0
55391.0,STARLINK-5077,PAYLOAD,2023-11-07 13:42:08,14.97497259,0.0002761,70.0009,54.387,263.0768,97.0076,-0.00035973,-4.291e-05,0.0,0 STARLINK-5077,1 55391U 23014A   23311.57092757 -.00004291  00000-0 -35973-3 0  9993,2 55391  70.0009  54.3870 0002761 263.0768  97.0076 14.97497259 44291,6952.769,96.16,576.554,572.715,0.0
55391.0,STARLINK-5077,PAYLOAD,2023-11-07 16:54:30,14.97500925,0.0002797,70.001,54.0513,263.1581,96.926,-0.00043903,-5.216e-05,0.0,0 STARLINK-5077,1 55391U 23014A   23311.70452087 -.00005216  00000-0 -43903-3 0  9994,2 55391  70.0010  54.0513 0002797 263.1581  96.9260 14.97500925 43373,6952.758,96.16,576.568,572.678,0.0
55391.0,STARLINK-5077,PAYLOAD,2023-11-08 00:55:25,14.97509172,0.0003088,70.0018,53.2101,274.0555,86.0251,-0.00024354,-2.936e-05,0.0,0 STARLINK-5077,1 55391U 23014A   23312.03849357 -.00002936  00000-0 -24354-3 0  9996,2 55391  70.0018  53.2101 0003088 274.0555  86.0251 14.97509172 43420,6952.732,96.16,576.744,572.45,0.0
55391.0,STARLINK-5077,PAYLOAD,2023-11-08 13:44:55,14.97513723,0.0002593,70.0021,51.865,257.4002,102.6866,-9.735e-05,-1.229e-05,0.0,0 STARLINK-5077,1 55391U 23014A   23312.57285940 -.00001229  00000-0 -97350-4 0  9998,2 55391  70.0021  51.8650 0002593 257.4002 102.6866 14.97513723 44446,6952.718,96.159,576.386,572.78,0.0
55391.0,STARLINK-5077,PAYLOAD,2023-11-08 16:57:17,14.97515723,0.0002822,70.0025,51.5283,285.2469,74.8378,-3.2543e-05,-4.72e-06,0.0,0 STARLINK-5077,1 55391U 23014A   23312.70645165 -.00000472  00000-0 -32543-4 0  9994,2 55391  70.0025  51.5283 0002822 285.2469  74.8378 14.97515723 43528,6952.712,96.159,576.539,572.615,0.0
55391.0,STARLINK-5077,PAYLOAD,2023-11-09 10:35:19,14.97516192,0.000271,70.0019,49.6772,268.4675,91.6173,0.00053684,6.186e-05,0.0,0 STARLINK-5077,1 55391U 23014A   23313.44119417  .00006186  00000-0  53684-3 0  9996,2 55391  70.0019  49.6772 0002710 268.4675  91.6173 14.97516192 43633,6952.711,96.159,576.46,572.691,0.0
55391.0,STARLINK-5077,PAYLOAD,2023-11-09 13:47:41,14.97522552,0.0002596,70.0028,49.3446,256.352,103.7349,0.00053731,6.192e-05,0.0,0 STARLINK-5077,1 55391U 23014A   23313.57478266  .00006192  00000-0  53731-3 0  9990,2 55391  70.0028  49.3446 0002596 256.3520 103.7349 14.97522552 44598,6952.691,96.159,576.361,572.751,0.0
55391.0,STARLINK-5077,PAYLOAD,2023-11-09 15:23:52,14.97522394,0.0002729,70.002,49.1728,274.6311,85.4535,0.00056166,6.477e-05,0.0,0 STARLINK-5077,1 55391U 23014A   23313.64157889  .00006477  00000-0  56166-3 0  9994,2 55391  70.0020  49.1728 0002729 274.6311  85.4535 14.97522394 44609,6952.691,96.159,576.454,572.659,0.0
55391.0,STARLINK-5077,PAYLOAD,2023-11-09 23:24:48,14.97554708,0.0002727,70.0041,48.3343,265.8877,94.197,-0.0003055,-3.663e-05,0.0,0 STARLINK-5077,1 55391U 23014A   23313.97555570 -.00003663  00000-0 -30550-3 0  9994,2 55391  70.0041  48.3343 0002727 265.8877  94.1970 14.97554708 43718,6952.591,96.157,576.352,572.56,0.0
55391.0,STARLINK-5077,PAYLOAD,2023-11-10 12:14:18,14.97520965,0.0002678,70.0018,46.9857,265.1751,94.9102,7.8073e-05,8.2e-06,0.0,0 STARLINK-5077,1 55391U 23014A   23314.50993878  .00000820  00000-0  78073-4 0  9994,2 55391  70.0018  46.9857 0002678 265.1751  94.9102 14.97520965 43796,6952.696,96.159,576.423,572.699,0.0
55391.0,STARLINK-5077,PAYLOAD,2023-11-10 13:50:29,14.97524463,0.000277,70.0012,46.8172,268.3265,91.7576,7.769e-05,8.16e-06,0.0,0 STARLINK-5077,1 55391U 23014A   23314.57673239  .00000816  00000-0  77690-4 0  9996,2 55391  70.0012  46.8172 0002770 268.3265  91.7576 14.97524463 44740,6952.685,96.159,576.476,572.624,0.0
55391.0,STARLINK-5077,PAYLOAD,2023-11-10 15:26:40,14.97523904,0.0002586,70.0018,46.6502,262.8793,97.2071,8.1982e-05,8.66e-06,0.0,0 STARLINK-5077,1 55391U 23014A   23314.64352833  .00000866  00000-0  81982-4 0  9992,2 55391  70.0018  46.6502 0002586 262.8793  97.2071 14.97523904 44752,6952.687,96.159,576.35,572.754,0.0
55391.0,STARLINK-5077,PAYLOAD,2023-11-11 12:17:05,14.9753501,0.0002867,70.0013,44.4629,273.7024,86.3807,-0.00014616,-1.8e-05,0.0,0 STARLINK-5077,1 55391U 23014A   23315.51187014 -.00001800  00000-0 -14616-3 0  9996,2 55391  70.0013  44.4629 0002867 273.7024  86.3807 14.97535010 43940,6952.652,96.158,576.511,572.524,0.0
55391.0,STARLINK-5077,PAYLOAD,2023-11-11 13:53:16,14.9753305,0.0002927,70.001,44.2947,273.1553,86.927,-0.0001303,-1.615e-05,0.0,0 STARLINK-5077,1 55391U 23014A   23315.57866624 -.00001615  00000-0 -13030-3 0  9996,2 55391  70.0010  44.2947 0002927 273.1553  86.9270 14.97533050 44893,6952.658,96.158,576.559,572.488,0.0
55391.0,STARLINK-5077,PAYLOAD,2023-11-11 15:29:27,14.97533117,0.0003012,70.0011,44.1265,274.35,85.7315,-0.00012371,-1.538e-05,0.0,0 STARLINK-5077,1 55391U 23014A   23315.64546154 -.00001538  00000-0 -12371-3 0  9998,2 55391  70.0011  44.1265 0003012 274.3500  85.7315 14.97533117 44900,6952.658,96.158,576.617,572.429,0.0
55391.0,STARLINK-5077,PAYLOAD,2023-11-12 10:43:42,14.97518466,0.0002878,70.0014,42.1064,268.8981,91.1848,3.4606e-05,3.12e-06,0.0,0 STARLINK-5077,1 55391U 23014A   23316.44701569  .00000312  00000-0  34606-4 0  9993,2 55391  70.0014  42.1064 0002878 268.8981  91.1848 14.97518466 44089,6952.704,96.159,576.57,572.568,0.0
55391.0,STARLINK-5077,PAYLOAD,2023-11-12 13:56:04,14.97521836,0.0002613,70.0014,41.77,258.9248,101.1617,5.6842e-06,-2.6e-07,0.0,0 STARLINK-5077,1 55391U 23014A   23316.58060604 -.00000026  00000-0  56842-5 0  9996,2 55391  70.0014  41.7700 0002613 258.9248 101.1617 14.97521836 45042,6952.693,96.159,576.375,572.741,0.0
55391.0,STARLINK-5077,PAYLOAD,2023-11-12 15:32:15,14.97523153,0.0002588,70.0014,41.6017,258.9021,101.1846,2.1433e-05,1.58e-06,0.0,0 STARLINK-5077,1 55391U 23014A   23316.64740081  .00000158  00000-0  21433-4 0  9999,2 55391  70.0014  41.6017 0002588 258.9021 101.1846 14.97523153 45051,6952.689,96.159,576.353,572.755,0.0
55391.0,STARLINK-5077,PAYLOAD,2023-11-12 23:33:11,14.97525924,0.0002762,70.0016,40.7603,265.4505,94.6338,-1.7719e-05,-2.99e-06,0.0,0 STARLINK-5077,1 55391U 23014A   23316.98137950 -.00000299  00000-0 -17719-4 0  9991,2 55391  70.0016  40.7603 0002762 265.4505  94.6338 14.97525924 44169,6952.681,96.159,576.466,572.625,0.0
55391.0,STARLINK-5077,PAYLOAD,2023-11-13 12:22:39,14.97533491,0.0002872,70.0007,39.4158,269.1568,90.9261,8.5697e-05,9.1e-06,0.0,0 STARLINK-5077,1 55391U 23014A   23317.51573812  .00000910  00000-0  85697-4 0  9990,2 55391  70.0007  39.4158 0002872 269.1568  90.9261 14.97533491 44242,6952.657,96.158,576.519,572.525,0.0
55391.0,STARLINK-5077,PAYLOAD,2023-11-14 04:24:32,14.97523627,0.0003033,70.0002,37.7339,270.374,89.7071,2.3832e-05,1.86e-06,0.0,0 STARLINK-5077,1 55391U 23014A   23318.18370484  .00000186  00000-0  23832-4 0  9992,2 55391  70.0002  37.7339 0003033 270.3740  89.7071 14.97523627 44341,6952.688,96.159,576.661,572.444,0.0
55391.0,STARLINK-5077,PAYLOAD,2023-11-14 12:25:28,14.97519217,0.0002894,70.001,36.893,267.4341,92.6487,-2.9396e-05,-4.36e-06,0.0,0 STARLINK-5077,1 55391U 23014A   23318.51768858 -.00000436  00000-0 -29396-4 0  9996,2 55391  70.0010  36.8930 0002894 267.4341  92.6487 14.97519217 45339,6952.701,96.159,576.578,572.554,0.0
55391.0,STARLINK-5077,PAYLOAD,2023-11-14 22:02:35,14.97519711,0.0002744,70.002,35.8833,270.5897,89.4947,-4.8456e-05,-6.58e-06,0.0,0 STARLINK-5077,1 55391U 23014A   23318.91846439 -.00000658  00000-0 -48456-4 0  9996,2 55391  70.0020  35.8833 0002744 270.5897  89.4947 14.97519711 45396,6952.7,96.159,576.473,572.657,0.0
55391.0,STARLINK-5077,PAYLOAD,2023-11-15 10:52:05,14.97514739,0.0002749,70.0013,34.5379,270.6824,89.402,-0.00017802,-2.171e-05,0.0,0 STARLINK-5077,1 55391U 23014A   23319.45283773 -.00002171  00000-0 -17802-3 0  9994,2 55391  70.0013  34.5379 0002749 270.6824  89.4020 14.97514739 44537,6952.715,96.159,576.491,572.669,0.0
